{
    "links": {
        "self": "http://www.neowsapp.com/rest/v1/neo/3837818?api_key=iIulBulltgU6a56xZRHN4H3l9WmuAYTsLGpBGhQ2"
    },
    "id": "3837818",
    "neo_reference_id": "3837818",
    "name": "(2019 AZ9)",
    "designation": "2019 AZ9",
    "nasa_jpl_url": "http://ssd.jpl.nasa.gov/sbdb.cgi?sstr=3837818",
    "absolute_magnitude_h": 25.0,
    "estimated_diameter": {
        "kilometers": {
            "estimated_diameter_min": 0.02658,
            "estimated_diameter_max": 0.0594346868
        },
        "meters": {
            "estimated_diameter_min": 26.58,
            "estimated_diameter_max": 59.4346868419
        },
        "miles": {
            "estimated_diameter_min": 0.0165160412,
            "estimated_diameter_max": 0.0369309908
        },
        "feet": {
            "estimated_diameter_min": 87.2047272,
            "estimated_diameter_max": 194.9956979785
        }
    },
    "is_potentially_hazardous_asteroid": false,
    "close_approach_data": [
        {
            "close_approach_date": "2019-01-06",
            "close_approach_date_full": "2019-Jan-06 01:31",
            "epoch_date_close_approach": 1546738260000,
            "relative_velocity": {
                "kilometers_per_second": "12.4095057257",
                "kilometers_per_hour": "44674.2206123458",
                "miles_per_hour": "27758.8233577101"
            },
            "miss_distance": {
                "astronomical": "0.0382243683",
                "lunar": "14.8692792687",
                "kilometers": "5718284.079775521",
                "miles": "3553176.9641673498"
            },
            "orbiting_body": "Earth"
        }
    ],
    "orbital_data": {
        "orbit_id": "2",
        "orbit_determination_date": "2019-07-16 06:15:18",
        "first_observation_date": "2019-01-11",
        "last_observation_date": "2019-01-14",
        "data_arc_in_days": 3,
        "observations_used": 18,
        "orbit_uncertainty": "8",
        "minimum_orbit_intersection": ".0277141",
        "jupiter_tisserand_invariant": "4.732",
        "epoch_osculation": "2458496.5",
        "eccentricity": ".2780357672905004",
        "semi_major_axis": "1.365219056405345",
        "inclination": "20.63881295385615",
        "ascending_node_longitude": "284.8850450552296",
        "orbital_period": "582.6422036053887",
        "perihelion_distance": ".9856393285380717",
        "perihelion_argument": "151.5380616522762",
        "aphelion_distance": "1.744798784272618",
        "perihelion_time": "2458465.334764399116",
        "mean_anomaly": "19.25621718936955",
        "mean_motion": ".6178749115191464",
        "equinox": "J2000",
        "orbit_class": {
            "orbit_class_type": "APO",
            "orbit_class_description": "Near-Earth asteroid orbits which cross the Earth’s orbit similar to that of 1862 Apollo",
            "orbit_class_range": "a (semi-major axis) > 1.0 AU; q (perihelion) < 1.017 AU"
        }
    },
    "is_sentry_object": false
}